NORAD_CAT_ID,OBJECT_NAME,OBJECT_TYPE,EPOCH,MEAN_MOTION,ECCENTRICITY,INCLINATION,RA_OF_ASC_NODE,ARG_OF_PERICENTER,MEAN_ANOMALY,BSTAR,MEAN_MOTION_DOT,MEAN_MOTION_DDOT,TLE_LINE0,TLE_LINE1,TLE_LINE2,SEMIMAJOR_AXIS,PERIOD,APOGEE,PERIGEE,DECAYED
54196.0,STARLINK-5237,PAYLOAD,2023-09-10 18:48:15,15.08841069,0.000128,53.2165,123.2218,88.6564,271.4575,2.0544e-05,3.9e-07,0.0,0 STARLINK-5237,1 54196U 22141AR  23253.78350788  .00000039  00000-0  20544-4 0  9997,2 54196  53.2165 123.2218 0001280  88.6564 271.4575 15.08841069 48719,6917.877,95.437,540.628,538.857,0.0
54196.0,STARLINK-5237,PAYLOAD,2023-09-11 01:09:47,15.08842552,0.0001263,53.2162,122.0309,95.6277,264.486,4.0493e-05,3.57e-06,0.0,0 STARLINK-5237,1 54196U 22141AR  23254.04846540  .00000357  00000-0  40493-4 0  9991,2 54196  53.2162 122.0309 0001263  95.6277 264.4860 15.08842552 48520,6917.873,95.437,540.611,538.864,0.0
54196.0,STARLINK-5237,PAYLOAD,2023-09-12 01:00:34,15.08846988,0.0001324,53.2159,117.5713,91.3408,268.7736,8.1495e-05,1.01e-05,0.0,0 STARLINK-5237,1 54196U 22141AR  23255.04206330  .00001010  00000-0  81495-4 0  9993,2 54196  53.2159 117.5713 0001324  91.3408 268.7736 15.08846988 48909,6917.859,95.437,540.64,538.808,0.0
54196.0,STARLINK-5237,PAYLOAD,2023-09-12 18:29:49,15.08836482,0.0001427,53.2161,114.2991,110.8244,249.2901,5.0945e-05,5.23e-06,0.0,0 STARLINK-5237,1 54196U 22141AR  23255.77071210  .00000523  00000-0  50945-4 0  9994,2 54196  53.2161 114.2991 0001427 110.8244 249.2901 15.08836482 49012,6917.891,95.438,540.743,538.769,0.0
54196.0,STARLINK-5237,PAYLOAD,2023-09-12 20:05:12,15.08838982,0.0001447,53.2164,114.0013,107.6505,252.4645,6.9302e-05,8.15e-06,0.0,0 STARLINK-5237,1 54196U 22141AR  23255.83695049  .00000815  00000-0  69302-4 0  9994,2 54196  53.2164 114.0013 0001447 107.6505 252.4645 15.08838982 48796,6917.884,95.438,540.75,538.747,0.0
54196.0,STARLINK-5237,PAYLOAD,2023-09-12 23:15:58,15.08843507,0.0001482,53.2164,113.4061,111.9293,248.1857,0.00010088,1.318e-05,0.0,0 STARLINK-5237,1 54196U 22141AR  23255.96942674  .00001318  00000-0  10088-3 0  9992,2 54196  53.2164 113.4061 0001482 111.9293 248.1857 15.08843507 49048,6917.87,95.437,540.76,538.709,0.0
54196.0,STARLINK-5237,PAYLOAD,2023-09-13 13:34:26,15.08845186,0.0001607,53.2169,110.7279,119.6882,240.4271,0.00013007,1.783e-05,0.0,0 STARLINK-5237,1 54196U 22141AR  23256.56558435  .00001783  00000-0  13007-3 0  9997,2 54196  53.2169 110.7279 0001607 119.6882 240.4271 15.08845186 48906,6917.865,95.437,540.841,538.618,0.0
54196.0,STARLINK-5237,PAYLOAD,2023-09-13 21:31:22,15.08848928,0.0001287,53.2157,109.2448,102.127,257.9866,9.4651e-05,1.219e-05,0.0,0 STARLINK-5237,1 54196U 22141AR  23256.89678266  .00001219  00000-0  94651-4 0  9997,2 54196  53.2157 109.2448 0001287 102.1270 257.9866 15.08848928 48951,6917.853,95.437,540.608,538.828,0.0
54196.0,STARLINK-5237,PAYLOAD,2023-09-14 00:42:08,15.08851919,0.000126,53.2167,108.6492,97.2664,262.8472,0.00011772,1.587e-05,0.0,0 STARLINK-5237,1 54196U 22141AR  23257.02926026  .00001587  00000-0  11772-3 0  9993,2 54196  53.2167 108.6492 0001260  97.2664 262.8472 15.08851919 49207,6917.844,95.437,540.581,538.837,0.0
54196.0,STARLINK-5237,PAYLOAD,2023-09-14 18:11:24,15.08834246,0.0001431,53.2167,105.3764,114.8283,245.2858,-2.7139e-05,-7.2e-06,0.0,0 STARLINK-5237,1 54196U 22141AR  23257.75791765 -.00000720  00000-0 -27139-4 0  9998,2 54196  53.2167 105.3764 0001431 114.8283 245.2858 15.08834246 49315,6917.898,95.438,540.753,538.773,0.0
54196.0,STARLINK-5237,PAYLOAD,2023-09-14 21:22:10,15.08836439,0.0001524,53.2174,104.7785,114.5847,245.5304,-9.1239e-05,-1.74e-05,0.0,0 STARLINK-5237,1 54196U 22141AR  23257.89039826 -.00001740  00000-0 -91239-4 0  9991,2 54196  53.2174 104.7785 0001524 114.5847 245.5304 15.08836439 49107,6917.891,95.438,540.811,538.702,0.0
54196.0,STARLINK-5237,PAYLOAD,2023-09-15 18:02:10,15.0884544,0.0001157,53.2171,100.9128,92.4132,267.6993,8.1339e-06,-1.58e-06,0.0,0 STARLINK-5237,1 54196U 22141AR  23258.75151199 -.00000158  00000-0  81339-5 0  9997,2 54196  53.2171 100.9128 0001157  92.4132 267.6993 15.08845440 49466,6917.864,95.437,540.529,538.928,0.0
54196.0,STARLINK-5237,PAYLOAD,2023-09-15 21:12:56,15.08848438,0.0001264,53.2173,100.319,101.8684,258.245,6.2011e-05,6.99e-06,0.0,0 STARLINK-5237,1 54196U 22141AR  23258.88398857  .00000699  00000-0  62011-4 0  9999,2 54196  53.2173 100.3190 0001264 101.8684 258.2450 15.08848438 49258,6917.855,95.437,540.594,538.845,0.0
54196.0,STARLINK-5237,PAYLOAD,2023-09-16 17:52:58,15.08836248,0.0001207,53.2171,96.4572,91.659,268.454,0.0001492,2.087e-05,0.0,0 STARLINK-5237,1 54196U 22141AR  23259.74511780  .00002087  00000-0  14920-3 0  9995,2 54196  53.2171  96.4572 0001207  91.6590 268.4540 15.08836248 49613,6917.892,95.438,540.592,538.922,0.0
54196.0,STARLINK-5237,PAYLOAD,2023-09-16 22:39:07,15.08840286,0.0001201,53.2172,95.5639,99.7297,260.3831,0.0001752,2.502e-05,0.0,0 STARLINK-5237,1 54196U 22141AR  23259.94383467  .00002502  00000-0  17520-3 0  9997,2 54196  53.2172  95.5639 0001201  99.7297 260.3831 15.08840286 49414,6917.88,95.438,540.575,538.914,0.0
54196.0,STARLINK-5237,PAYLOAD,2023-09-17 19:19:08,15.08844316,0.0001221,53.2174,91.6989,95.6683,264.4448,5.7767e-05,6.32e-06,0.0,0 STARLINK-5237,1 54196U 22141AR  23260.80495453  .00000632  00000-0  57767-4 0  9993,2 54196  53.2174  91.6989 0001221  95.6683 264.4448 15.08844316 49773,6917.867,95.437,540.577,538.888,0.0
54196.0,STARLINK-5237,PAYLOAD,2023-09-17 22:29:53,15.08850273,0.0001142,53.2171,91.1045,99.9045,260.2076,8.2602e-05,1.027e-05,0.0,0 STARLINK-5237,1 54196U 22141AR  23260.93743021  .00001027  00000-0  82602-4 0  9999,2 54196  53.2171  91.1045 0001142  99.9045 260.2076 15.08850273 49791,6917.849,95.437,540.504,538.924,0.0
54196.0,STARLINK-5237,PAYLOAD,2023-09-18 17:34:32,15.08820216,0.000143,53.2181,87.5333,109.8699,250.2447,0.00032423,4.873e-05,0.0,0 STARLINK-5237,1 54196U 22141AR  23261.73232036  .00004873  00000-0  32423-3 0  9994,2 54196  53.2181  87.5333 0001430 109.8699 250.2447 15.08820216 49916,6917.941,95.439,540.795,538.817,0.0
54196.0,STARLINK-5237,PAYLOAD,2023-09-18 19:09:55,15.08842392,0.000122,53.2172,87.2376,93.4166,266.6965,5.2302e-05,5.45e-06,0.0,0 STARLINK-5237,1 54196U 22141AR  23261.79855587  .00000545  00000-0  52302-4 0  9993,2 54196  53.2172  87.2376 0001220  93.4166 266.6965 15.08842392 49694,6917.873,95.437,540.582,538.894,0.0
54196.0,STARLINK-5237,PAYLOAD,2023-09-18 20:45:18,15.08829607,0.0001296,53.2172,86.9401,100.1663,259.9475,0.00025709,3.805e-05,0.0,0 STARLINK-5237,1 54196U 22141AR  23261.86479815  .00003805  00000-0  25709-3 0  9999,2 54196  53.2172  86.9401 0001296 100.1663 259.9475 15.08829607 49932,6917.912,95.438,540.674,538.881,0.0
54196.0,STARLINK-5237,PAYLOAD,2023-09-19 19:00:41,15.08854599,0.0001218,53.2161,82.7773,92.077,268.0362,9.4936e-05,1.224e-05,0.0,0 STARLINK-5237,1 54196U 22141AR  23262.79214765  .00001224  00000-0  94936-4 0  9995,2 54196  53.2161  82.7773 0001218  92.0770 268.0362 15.08854599 50079,6917.836,95.437,540.543,538.858,0.0
54196.0,STARLINK-5237,PAYLOAD,2023-09-20 12:29:57,15.08834707,0.000149,53.2166,79.5046,90.4022,269.7141,-2.9147e-05,-7.52e-06,0.0,0 STARLINK-5237,1 54196U 22141AR  23263.52079935 -.00000752  00000-0 -29147-4 0  9994,2 54196  53.2166  79.5046 0001490  90.4022 269.7141 15.08834707 49952,6917.897,95.438,540.792,538.731,0.0
54196.0,STARLINK-5237,PAYLOAD,2023-09-20 18:51:29,15.08832853,0.000115,53.2163,78.3181,94.325,265.7874,-9.9522e-05,-1.871e-05,0.0,0 STARLINK-5237,1 54196U 22141AR  23263.78575947 -.00001871  00000-0 -99522-4 0  9993,2 54196  53.2163  78.3181 0001150  94.3250 265.7874 15.08832853 50226,6917.902,95.438,540.563,538.972,0.0
54196.0,STARLINK-5237,PAYLOAD,2023-09-20 20:26:52,15.0883376,0.0001185,53.2164,78.0205,96.1042,264.0085,-7.5972e-05,-1.496e-05,0.0,0 STARLINK-5237,1 54196U 22141AR  23263.85199936 -.00001496  00000-0 -75972-4 0  9997,2 54196  53.2164  78.0205 0001185  96.1042 264.0085 15.08833760 50008,6917.899,95.438,540.584,538.945,0.0
54196.0,STARLINK-5237,PAYLOAD,2023-09-21 04:23:48,15.08836522,0.0001165,53.2165,76.5337,97.1327,262.9798,1.0888e-05,-1.15e-06,0.0,0 STARLINK-5237,1 54196U 22141AR  23264.18319954 -.00000115  00000-0  10888-4 0  9999,2 54196  53.2165  76.5337 0001165  97.1327 262.9798 15.08836522 50055,6917.891,95.438,540.562,538.95,0.0
54196.0,STARLINK-5237,PAYLOAD,2023-09-21 18:42:16,15.08842597,0.0001171,53.216,73.8578,101.9644,258.1479,0.00017251,2.459e-05,0.0,0 STARLINK-5237,1 54196U 22141AR  23264.77935901  .00002459  00000-0  17251-3 0  9992,2 54196  53.2160  73.8578 0001171 101.9644 258.1479 15.08842597 50377,6917.872,95.437,540.548,538.927,0.0
54196.0,STARLINK-5237,PAYLOAD,2023-09-21 20:17:39,15.08844638,0.0001156,53.2163,73.5603,102.5104,257.6018,0.0002352,3.458e-05,0.0,0 STARLINK-5237,1 54196U 22141AR  23264.84559884  .00003458  00000-0  23520-3 0  9998,2 54196  53.2163  73.5603 0001156 102.5104 257.6018 15.08844638 50154,6917.866,95.437,540.531,538.932,0.0
54196.0,STARLINK-5237,PAYLOAD,2023-09-22 04:14:35,15.08845598,0.0001125,53.2164,72.0735,96.8916,263.2205,0.00026451,3.925e-05,0.0,0 STARLINK-5237,1 54196U 22141AR  23265.17679910  .00003925  00000-0  26451-3 0  9993,2 54196  53.2164  72.0735 0001125  96.8916 263.2205 15.08845598 50200,6917.863,95.437,540.507,538.95,0.0
54196.0,STARLINK-5237,PAYLOAD,2023-09-22 20:08:26,15.08852802,0.0001128,53.2167,69.1001,95.361,264.751,0.00040551,6.174e-05,0.0,0 STARLINK-5237,1 54196U 22141AR  23265.83919732  .00006174  00000-0  40551-3 0  9991,2 54196  53.2167  69.1001 0001128  95.3610 264.7510 15.08852802 50306,6917.841,95.437,540.487,538.926,0.0
54196.0,STARLINK-5237,PAYLOAD,2023-09-23 10:26:54,15.08846824,0.0001309,53.2157,66.4239,82.4232,277.6909,0.00018369,2.637e-05,0.0,0 STARLINK-5237,1 54196U 22141AR  23266.43535779  .00002637  00000-0  18369-3 0  9995,2 54196  53.2157  66.4239 0001309  82.4232 277.6909 15.08846824 50623,6917.86,95.437,540.63,538.819,0.0
